{
  "type": "FeatureCollection",
  "features": [
    {
      "type": "Feature",
      "properties": {
        "norad_id": 34570,
        "name": "COSMOS 2251 DEB",
        "group": "cosmos-2251-debris",
        "lat": -34.820959566505046,
        "lon": -135.3710922330408,
        "alt_km": 1027.732002684149,
        "timestamp": "2025-12-02T10:50:47.670299+00:00",
        "meta_object_name": "COSMOS 2251 DEB",
        "meta_object_id": "1993-036VG",
        "meta_epoch": "2025-12-01T04:52:12.097056",
        "meta_mean_motion": 13.99791144,
        "meta_eccentricity": 0.0190354,
        "meta_inclination": 73.9581,
        "meta_ra_of_asc_node": 238.3445,
        "meta_arg_of_pericenter": 123.4106,
        "meta_mean_anomaly": 29.376,
        "meta_ephemeris_type": 0,
        "meta_classification_type": "U",
        "meta_norad_cat_id": 34570,
        "meta_element_set_no": 999,
        "meta_rev_at_epoch": 85439,
        "meta_bstar": 0.00050145,
        "meta_mean_motion_dot": 8.36e-06,
        "meta_mean_motion_ddot": 0,
        "tle_line1": "1 34570U 93036VG  25335.20291779  .00000836  00000+0  50145-3 0  9999",
        "tle_line2": "2 34570  73.9581 238.3445 0190354 123.4106  29.3760 13.99791144854396"
      },
      "geometry": {
        "type": "Point",
        "coordinates": [
          -135.3710922330408,
          -34.820959566505046
        ]
      }
    },
    {
      "type": "Feature",
      "properties": {
        "norad_id": 34571,
        "name": "COSMOS 2251 DEB",
        "group": "cosmos-2251-debris",
        "lat": 13.676612598319958,
        "lon": 17.711914467342865,
        "alt_km": 717.1506499606721,
        "timestamp": "2025-12-02T10:50:47.670309+00:00",
        "meta_object_name": "COSMOS 2251 DEB",
        "meta_object_id": "1993-036VH",
        "meta_epoch": "2025-12-02T01:47:25.662048",
        "meta_mean_motion": 14.48552356,
        "meta_eccentricity": 0.0067192,
        "meta_inclination": 74.0386,
        "meta_ra_of_asc_node": 202.4121,
        "meta_arg_of_pericenter": 239.9116,
        "meta_mean_anomaly": 119.5371,
        "meta_ephemeris_type": 0,
        "meta_classification_type": "U",
        "meta_norad_cat_id": 34571,
        "meta_element_set_no": 999,
        "meta_rev_at_epoch": 87139,
        "meta_bstar": 0.0021114,
        "meta_mean_motion_dot": 8.143e-05,
        "meta_mean_motion_ddot": 0,
        "tle_line1": "1 34571U 93036VH  25336.07460257  .00008143  00000+0  21114-2 0  9997",
        "tle_line2": "2 34571  74.0386 202.4121 0067192 239.9116 119.5371 14.48552356871396"
      },
      "geometry": {
        "type": "Point",
        "coordinates": [
          17.711914467342865,
          13.676612598319958
        ]
      }
    },
    {
      "type": "Feature",
      "properties": {
        "norad_id": 34572,
        "name": "COSMOS 2251 DEB",
        "group": "cosmos-2251-debris",
        "lat": -12.76954225834035,
        "lon": 131.12595544760453,
        "alt_km": 763.925209143822,
        "timestamp": "2025-12-02T10:50:47.670319+00:00",
        "meta_object_name": "COSMOS 2251 DEB",
        "meta_object_id": "1993-036VJ",
        "meta_epoch": "2025-12-01T11:59:02.664096",
        "meta_mean_motion": 14.49619405,
        "meta_eccentricity": 0.00641877,
        "meta_inclination": 74.0092,
        "meta_ra_of_asc_node": 136.6423,
        "meta_arg_of_pericenter": 212.2456,
        "meta_mean_anomaly": 204.7562,
        "meta_ephemeris_type": 0,
        "meta_classification_type": "U",
        "meta_norad_cat_id": 34572,
        "meta_element_set_no": 999,
        "meta_rev_at_epoch": 87215,
        "meta_bstar": 0.003471836,
        "meta_mean_motion_dot": 0.00013693,
        "meta_mean_motion_ddot": 0,
        "tle_line1": "1 34572U 93036VJ  25335.49933639  .00013693  00000+0  34718-2 0  9992",
        "tle_line2": "2 34572  74.0092 136.6423 0064187 212.2456 204.7562 14.49619405872150"
      },
      "geometry": {
        "type": "Point",
        "coordinates": [
          131.12595544760453,
          -12.76954225834035
        ]
      }
    },
    {
      "type": "Feature",
      "properties": {
        "norad_id": 34574,
        "name": "COSMOS 2251 DEB",
        "group": "cosmos-2251-debris",
        "lat": -9.061061704537535,
        "lon": -114.3316797636231,
        "alt_km": 672.796131965858,
        "timestamp": "2025-12-02T10:50:47.670330+00:00",
        "meta_object_name": "COSMOS 2251 DEB",
        "meta_object_id": "1993-036VL",
        "meta_epoch": "2025-12-01T14:41:46.154400",
        "meta_mean_motion": 14.70392839,
        "meta_eccentricity": 0.00670629,
        "meta_inclination": 74.0693,
        "meta_ra_of_asc_node": 64.6825,
        "meta_arg_of_pericenter": 89.4651,
        "meta_mean_anomaly": 336.5681,
        "meta_ephemeris_type": 0,
        "meta_classification_type": "U",
        "meta_norad_cat_id": 34574,
        "meta_element_set_no": 999,
        "meta_rev_at_epoch": 88615,
        "meta_bstar": 0.0010690889,
        "meta_mean_motion_dot": 6.672e-05,
        "meta_mean_motion_ddot": 0,
        "tle_line1": "1 34574U 93036VL  25335.61233975  .00006672  00000+0  10691-2 0  9997",
        "tle_line2": "2 34574  74.0693  64.6825 0067062  89.4651 336.5681 14.70392839886155"
      },
      "geometry": {
        "type": "Point",
        "coordinates": [
          -114.3316797636231,
          -9.061061704537535
        ]
      }
    },
    {
      "type": "Feature",
      "properties": {
        "norad_id": 34576,
        "name": "COSMOS 2251 DEB",
        "group": "cosmos-2251-debris",
        "lat": -1.320564505377119,
        "lon": 157.3067197707318,
        "alt_km": 709.1263681981964,
        "timestamp": "2025-12-02T10:50:47.670341+00:00",
        "meta_object_name": "COSMOS 2251 DEB",
        "meta_object_id": "1993-036VN",
        "meta_epoch": "2025-12-01T11:53:14.026272",
        "meta_mean_motion": 14.55294721,
        "meta_eccentricity": 0.00078235,
        "meta_inclination": 74.0329,
        "meta_ra_of_asc_node": 159.4962,
        "meta_arg_of_pericenter": 292.5887,
        "meta_mean_anomaly": 96.2174,
        "meta_ephemeris_type": 0,
        "meta_classification_type": "U",
        "meta_norad_cat_id": 34576,
        "meta_element_set_no": 999,
        "meta_rev_at_epoch": 88303,
        "meta_bstar": 0.00089232373,
        "meta_mean_motion_dot": 3.842e-05,
        "meta_mean_motion_ddot": 0,
        "tle_line1": "1 34576U 93036VN  25335.49530123  .00003842  00000+0  89232-3 0  9994",
        "tle_line2": "2 34576  74.0329 159.4962 0007823 292.5887  96.2174 14.55294721883030"
      },
      "geometry": {
        "type": "Point",
        "coordinates": [
          157.3067197707318,
          -1.320564505377119
        ]
      }
    },
    {
      "type": "Feature",
      "properties": {
        "norad_id": 34577,
        "name": "COSMOS 2251 DEB",
        "group": "cosmos-2251-debris",
        "lat": -57.841661262797714,
        "lon": 33.069464195829624,
        "alt_km": 308.3474286820974,
        "timestamp": "2025-12-02T10:50:47.670351+00:00",
        "meta_object_name": "COSMOS 2251 DEB",
        "meta_object_id": "1993-036VP",
        "meta_epoch": "2025-12-02T00:46:12.345312",
        "meta_mean_motion": 15.88684071,
        "meta_eccentricity": 0.0007344,
        "meta_inclination": 73.9875,
        "meta_ra_of_asc_node": 186.8683,
        "meta_arg_of_pericenter": 144.5153,
        "meta_mean_anomaly": 215.657,
        "meta_ephemeris_type": 0,
        "meta_classification_type": "U",
        "meta_norad_cat_id": 34577,
        "meta_element_set_no": 999,
        "meta_rev_at_epoch": 89358,
        "meta_bstar": 0.0069258,
        "meta_mean_motion_dot": 0.01894776,
        "meta_mean_motion_ddot": 0.0018705,
        "tle_line1": "1 34577U 93036VP  25336.03208733  .01894776  18705-2  69258-2 0  9999",
        "tle_line2": "2 34577  73.9875 186.8683 0007344 144.5153 215.6570 15.88684071893585"
      },
      "geometry": {
        "type": "Point",
        "coordinates": [
          33.069464195829624,
          -57.841661262797714
        ]
      }
    },
    {
      "type": "Feature",
      "properties": {
        "norad_id": 34579,
        "name": "COSMOS 2251 DEB",
        "group": "cosmos-2251-debris",
        "lat": -47.029755240130164,
        "lon": 80.91823602985889,
        "alt_km": 745.442339337541,
        "timestamp": "2025-12-02T10:50:47.670362+00:00",
        "meta_object_name": "COSMOS 2251 DEB",
        "meta_object_id": "1993-036VR",
        "meta_epoch": "2025-12-02T03:52:32.689344",
        "meta_mean_motion": 14.45253632,
        "meta_eccentricity": 0.002751,
        "meta_inclination": 74.0539,
        "meta_ra_of_asc_node": 243.5847,
        "meta_arg_of_pericenter": 313.8164,
        "meta_mean_anomaly": 205.3919,
        "meta_ephemeris_type": 0,
        "meta_classification_type": "U",
        "meta_norad_cat_id": 34579,
        "meta_element_set_no": 999,
        "meta_rev_at_epoch": 88021,
        "meta_bstar": 0.00054304,
        "meta_mean_motion_dot": 1.887e-05,
        "meta_mean_motion_ddot": 0,
        "tle_line1": "1 34579U 93036VR  25336.16148946  .00001887  00000+0  54304-3 0  9999",
        "tle_line2": "2 34579  74.0539 243.5847 0027510 313.8164 205.3919 14.45253632880215"
      },
      "geometry": {
        "type": "Point",
        "coordinates": [
          80.91823602985889,
          -47.029755240130164
        ]
      }
    }
  ]
}